{
    "links": {
        "self": "http://www.neowsapp.com/rest/v1/neo/3844010?api_key=iIulBulltgU6a56xZRHN4H3l9WmuAYTsLGpBGhQ2"
    },
    "id": "3844010",
    "neo_reference_id": "3844010",
    "name": "(2019 SU2)",
    "designation": "2019 SU2",
    "nasa_jpl_url": "http://ssd.jpl.nasa.gov/sbdb.cgi?sstr=3844010",
    "absolute_magnitude_h": 30.1,
    "estimated_diameter": {
        "kilometers": {
            "estimated_diameter_min": 0.0025383703,
            "estimated_diameter_max": 0.0056759685
        },
        "meters": {
            "estimated_diameter_min": 2.5383702936,
            "estimated_diameter_max": 5.6759685287
        },
        "miles": {
            "estimated_diameter_min": 0.0015772697,
            "estimated_diameter_max": 0.0035268822
        },
        "feet": {
            "estimated_diameter_min": 8.3279867942,
            "estimated_diameter_max": 18.6219445876
        }
    },
    "is_potentially_hazardous_asteroid": false,
    "close_approach_data": [
        {
            "close_approach_date": "2019-09-21",
            "close_approach_date_full": "2019-Sep-21 02:48",
            "epoch_date_close_approach": 1569034080000,
            "relative_velocity": {
                "kilometers_per_second": "11.9240328714",
                "kilometers_per_hour": "42926.5183368974",
                "miles_per_hour": "26672.8691299461"
            },
            "miss_distance": {
                "astronomical": "0.0004814511",
                "lunar": "0.1872844779",
                "kilometers": "72024.059069157",
                "miles": "44753.6750500866"
            },
            "orbiting_body": "Earth"
        },
        {
            "close_approach_date": "2019-09-21",
            "close_approach_date_full": "2019-Sep-21 08:53",
            "epoch_date_close_approach": 1569055980000,
            "relative_velocity": {
                "kilometers_per_second": "12.3715821704",
                "kilometers_per_hour": "44537.6958134062",
                "miles_per_hour": "27673.9921569467"
            },
            "miss_distance": {
                "astronomical": "0.0017587305",
                "lunar": "0.6841461645",
                "kilometers": "263102.336704035",
                "miles": "163484.211164283"
            },
            "orbiting_body": "Moon"
        }
    ],
    "orbital_data": {
        "orbit_id": "2",
        "orbit_determination_date": "2019-10-01 06:54:40",
        "first_observation_date": "2019-09-22",
        "last_observation_date": "2019-09-26",
        "data_arc_in_days": 4,
        "observations_used": 16,
        "orbit_uncertainty": "7",
        "minimum_orbit_intersection": ".000509229",
        "jupiter_tisserand_invariant": "3.275",
        "epoch_osculation": "2459000.5",
        "eccentricity": ".6068446822996216",
        "semi_major_axis": "2.36022587814371",
        "inclination": ".9317802414749219",
        "ascending_node_longitude": "179.2145167037436",
        "orbital_period": "1324.429295615692",
        "perihelion_distance": ".9279353549662446",
        "perihelion_argument": "141.3928162413512",
        "aphelion_distance": "3.792516401321175",
        "perihelion_time": "2458719.710582793155",
        "mean_anomaly": "76.32282865464174",
        "mean_motion": ".2718151895248177",
        "equinox": "J2000",
        "orbit_class": {
            "orbit_class_type": "APO",
            "orbit_class_description": "Near-Earth asteroid orbits which cross the Earth’s orbit similar to that of 1862 Apollo",
            "orbit_class_range": "a (semi-major axis) > 1.0 AU; q (perihelion) < 1.017 AU"
        }
    },
    "is_sentry_object": false
}